{
  "links" : {
    "next" : "https://api.nasa.gov/neo/rest/v1/feed?start_date=2004-03-09&end_date=2004-03-09&detailed=true&api_key=t0TVs3DtDT2H8Oy2Zy8m2eVrNsAVKAexjcZXUckd",
    "prev" : "https://api.nasa.gov/neo/rest/v1/feed?start_date=2004-03-07&end_date=2004-03-07&detailed=true&api_key=t0TVs3DtDT2H8Oy2Zy8m2eVrNsAVKAexjcZXUckd",
    "self" : "https://api.nasa.gov/neo/rest/v1/feed?start_date=2004-03-08&end_date=2004-03-08&detailed=true&api_key=t0TVs3DtDT2H8Oy2Zy8m2eVrNsAVKAexjcZXUckd"
  },
  "element_count" : 8,
  "near_earth_objects" : {
    "2004-03-08" : [ {
      "links" : {
        "self" : "https://api.nasa.gov/neo/rest/v1/neo/3704145?api_key=t0TVs3DtDT2H8Oy2Zy8m2eVrNsAVKAexjcZXUckd"
      },
      "neo_reference_id" : "3704145",
      "name" : "(2015 AB246)",
      "nasa_jpl_url" : "http://ssd.jpl.nasa.gov/sbdb.cgi?sstr=3704145",
      "absolute_magnitude_h" : 22.6,
      "estimated_diameter" : {
        "kilometers" : {
          "estimated_diameter_min" : 0.0802703167,
          "estimated_diameter_max" : 0.1794898848
        },
        "meters" : {
          "estimated_diameter_min" : 80.2703167283,
          "estimated_diameter_max" : 179.4898847799
        },
        "miles" : {
          "estimated_diameter_min" : 0.049877647,
          "estimated_diameter_max" : 0.1115298092
        },
        "feet" : {
          "estimated_diameter_min" : 263.3540659348,
          "estimated_diameter_max" : 588.8775935812
        }
      },
      "is_potentially_hazardous_asteroid" : false,
      "close_approach_data" : [ {
        "close_approach_date" : "2004-03-08",
        "epoch_date_close_approach" : 1078732800000,
        "relative_velocity" : {
          "kilometers_per_second" : "10.4513561697",
          "kilometers_per_hour" : "37624.8822107944",
          "miles_per_hour" : "23378.6386159239"
        },
        "miss_distance" : {
          "astronomical" : "0.3922049664",
          "lunar" : "152.5677337646",
          "kilometers" : "58673028",
          "miles" : "36457728"
        },
        "orbiting_body" : "Earth"
      } ],
      "orbital_data" : {
        "orbit_id" : "13",
        "orbit_determination_date" : "2017-04-06 08:36:20",
        "orbit_uncertainty" : "3",
        "minimum_orbit_intersection" : ".219768",
        "jupiter_tisserand_invariant" : "5.683",
        "epoch_osculation" : "2458000.5",
        "eccentricity" : ".2637787069234288",
        "semi_major_axis" : "1.071696704384449",
        "inclination" : "19.04018666598828",
        "ascending_node_longitude" : "126.9876864732698",
        "orbital_period" : "405.2343669032975",
        "perihelion_distance" : ".7890059334878188",
        "perihelion_argument" : "192.8493975362576",
        "aphelion_distance" : "1.354387475281079",
        "perihelion_time" : "2458085.367619187805",
        "mean_anomaly" : "284.6057457044344",
        "mean_motion" : ".8883748008616161",
        "equinox" : "J2000"
      }
    }, {
      "links" : {
        "self" : "https://api.nasa.gov/neo/rest/v1/neo/3778076?api_key=t0TVs3DtDT2H8Oy2Zy8m2eVrNsAVKAexjcZXUckd"
      },
      "neo_reference_id" : "3778076",
      "name" : "(2017 OM1)",
      "nasa_jpl_url" : "http://ssd.jpl.nasa.gov/sbdb.cgi?sstr=3778076",
      "absolute_magnitude_h" : 23.331,
      "estimated_diameter" : {
        "kilometers" : {
          "estimated_diameter_min" : 0.0573264405,
          "estimated_diameter_max" : 0.1281858179
        },
        "meters" : {
          "estimated_diameter_min" : 57.3264405141,
          "estimated_diameter_max" : 128.1858178976
        },
        "miles" : {
          "estimated_diameter_min" : 0.0356209877,
          "estimated_diameter_max" : 0.0796509499
        },
        "feet" : {
          "estimated_diameter_min" : 188.0788790963,
          "estimated_diameter_max" : 420.5571587912
        }
      },
      "is_potentially_hazardous_asteroid" : false,
      "close_approach_data" : [ {
        "close_approach_date" : "2004-03-08",
        "epoch_date_close_approach" : 1078732800000,
        "relative_velocity" : {
          "kilometers_per_second" : "17.2549809944",
          "kilometers_per_hour" : "62117.9315798508",
          "miles_per_hour" : "38597.6669863801"
        },
        "miss_distance" : {
          "astronomical" : "0.2328324631",
          "lunar" : "90.5718307495",
          "kilometers" : "34831240",
          "miles" : "21643130"
        },
        "orbiting_body" : "Earth"
      } ],
      "orbital_data" : {
        "orbit_id" : "5",
        "orbit_determination_date" : "2017-08-01 06:18:31",
        "orbit_uncertainty" : "7",
        "minimum_orbit_intersection" : ".00237486",
        "jupiter_tisserand_invariant" : "6.034",
        "epoch_osculation" : "2458000.5",
        "eccentricity" : ".4467803741744122",
        "semi_major_axis" : ".9827817257453653",
        "inclination" : "17.91359254303554",
        "ascending_node_longitude" : "123.0000072594535",
        "orbital_period" : "355.8639831956311",
        "perihelion_distance" : ".5436941385850764",
        "perihelion_argument" : "299.7937418511922",
        "aphelion_distance" : "1.421869312905654",
        "perihelion_time" : "2458027.623115071938",
        "mean_anomaly" : "332.5616474636887",
        "mean_motion" : "1.011622465322924",
        "equinox" : "J2000"
      }
    } ]
  }
}